     2.100          NAVIGATION                              RINEX VERSION / TYPE
fic2rin                                 07/06/2013 00:23:13 PGM / RUN BY / DATE
                                                            END OF HEADER
 5 13  7  5 10  0  0.0 -.398141331971D-03 -.568434188608D-12  .000000000000D+00
     .680000000000D+02 -.293750000000D+01  .492984820511D-08 -.228755307777D+01
    -.368803739548D-06  .307226472069D-02  .867247581482D-05  .515364869118D+04
     .468000000000D+06  .111758708954D-07 -.104936197263D+01 -.106170773506D-06
     .948217014759D+00  .208031250000D+03  .250129848764D+00 -.803069165340D-08
    -.414302971667D-09  .100000000000D+01  .174700000000D+04  .000000000000D+00
     .240000000000D+01  .000000000000D+00 -.102445483208D-07  .680000000000D+02
     .460806000000D+06  .400000000000D+01
 6 13  7  5 10  0  0.0  .156975816935D-03 -.175077730091D-10  .000000000000D+00
     .540000000000D+02 -.405625000000D+02  .451375944477D-08 -.255013313766D+01
    -.201538205147D-05  .811909430195D-02  .102818012238D-04  .515368649864D+04
     .468000000000D+06 -.109896063805D-06  .307783010807D+01  .149011611938D-07
     .941908935408D+00  .173125000000D+03 -.278913121851D+00 -.789318592573D-08
     .398230873629D-09  .100000000000D+01  .174700000000D+04  .000000000000D+00
     .240000000000D+01  .000000000000D+00 -.512227416039D-08  .540000000000D+02
     .460806000000D+06  .400000000000D+01
 7 13  7  5 10  0  0.0  .232623890042D-03  .420641299570D-11  .000000000000D+00
     .850000000000D+02  .326875000000D+02  .447197198987D-08  .365546709185D+00
     .161305069923D-05  .658888381440D-02  .126101076603D-05  .515368089867D+04
     .468000000000D+06  .596046447754D-07  .106774523089D+01  .130385160446D-07
     .975197301293D+00  .357781250000D+03 -.292690835753D+01 -.833534720067D-08
    -.867893294096D-10  .100000000000D+01  .174700000000D+04  .000000000000D+00
     .240000000000D+01  .000000000000D+00 -.107102096081D-07  .850000000000D+02
     .460806000000D+06  .400000000000D+01
 8 13  7  5 10  0  0.0  .720191746950D-05  .227373675443D-12  .000000000000D+00
     .129000000000D+03  .155000000000D+02  .400338104260D-08 -.201555653751D+00
     .683590769768D-06  .131034484366D-01  .177323818207D-05  .515371031380D+04
     .468000000000D+06  .126659870148D-06  .115989841545D+01  .577419996262D-07
     .997927137865D+00  .361281250000D+03 -.286709745510D+01 -.818641242551D-08
    -.105718689322D-09  .100000000000D+01  .174700000000D+04  .000000000000D+00
     .340000000000D+01  .000000000000D+00 -.419095158577D-08  .129000000000D+03
     .460806000000D+06  .400000000000D+01
10 13  7  5 10  0  0.0 -.858553685248D-04 -.136424205266D-11  .000000000000D+00
     .470000000000D+02 -.362500000000D+01  .499627954367D-08 -.208331888538D+01
    -.469386577606D-06  .124817164615D-01  .809505581856D-05  .515364169502D+04
     .468000000000D+06  .186264514923D-06 -.103015451217D+01 -.800937414169D-07
     .943055924625D+00  .210187500000D+03  .805375244574D+00 -.795747431789D-08
    -.273225666660D-09  .100000000000D+01  .174700000000D+04  .000000000000D+00
     .340000000000D+01  .000000000000D+00 -.279396772385D-08  .470000000000D+02
     .460806000000D+06  .400000000000D+01
11 13  7  5 10  0  0.0 -.397935509682D-03 -.363797880709D-11  .000000000000D+00
     .240000000000D+02  .249687500000D+02  .644562562904D-08  .574567614876D+00
     .127591192722D-05  .141477946891D-01  .635348260403D-05  .515368220901D+04
     .468000000000D+06 -.191852450371D-06 -.239258128000D+01  .465661287308D-07
     .889068950273D+00  .220406250000D+03  .117881677258D+01 -.915823862026D-08
     .351086052715D-09  .100000000000D+01  .174700000000D+04  .000000000000D+00
     .240000000000D+01  .000000000000D+00 -.116415321827D-07  .240000000000D+02
     .460806000000D+06  .400000000000D+01
12 13  7  5 10  0  0.0  .143079552799D-03  .216004991671D-11  .000000000000D+00
     .240000000000D+02 -.115468750000D+03  .395945064130D-08  .554242474767D-01
    -.606104731560D-05  .451816862915D-02  .596791505814D-05  .515354337120D+04
     .468000000000D+06  .856816768646D-07  .212750981649D+01  .465661287308D-07
     .984436699820D+00  .275187500000D+03  .307496820728D+00 -.794175937758D-08
    -.316084594764D-09  .100000000000D+01  .174700000000D+04  .000000000000D+00
     .240000000000D+01  .000000000000D+00 -.121071934700D-07  .240000000000D+02
     .460806000000D+06  .400000000000D+01
15 13  7  5 10  0  0.0 -.126246828586D-03 -.170530256582D-11  .000000000000D+00
     .880000000000D+02  .112093750000D+03  .490020411317D-08  .240611229354D+01
     .582635402679D-05  .543423299678D-02  .954046845436D-05  .515379020309D+04
     .468000000000D+06 -.149011611938D-06 -.295260434097D-01  .540167093277D-07
     .940775555718D+00  .184843750000D+03  .164530777116D+00 -.807890794752D-08
     .571452374714D-11  .100000000000D+01  .174700000000D+04  .000000000000D+00
     .240000000000D+01  .000000000000D+00 -.102445483208D-07  .880000000000D+02
     .460806000000D+06  .400000000000D+01
16 13  7  5 10  0  0.0 -.250583048910D-03  .454747350886D-12  .000000000000D+00
     .120000000000D+02 -.109625000000D+03  .380230123825D-08 -.215154097721D+01
    -.567920506001D-05  .713283254299D-02  .600703060627D-05  .515367322350D+04
     .468000000000D+06 -.391155481339D-07  .214591922295D+01 -.745058059692D-07
     .985134056776D+00  .277843750000D+03  .125114133289D+00 -.777746681985D-08
    -.185364864048D-09  .100000000000D+01  .174700000000D+04  .000000000000D+00
     .240000000000D+01  .000000000000D+00 -.102445483208D-07  .120000000000D+02
     .460806000000D+06  .400000000000D+01
17 13  7  5 10  0  0.0  .215135514736D-05 -.386535248253D-11  .000000000000D+00
     .960000000000D+02 -.285937500000D+02  .397266547746D-08 -.313739049894D+01
    -.144541263580D-05  .835913501214D-02  .103954225779D-04  .515365461731D+04
     .468000000000D+06  .931322574615D-08 -.310121576350D+01 -.316649675369D-07
     .966180269241D+00  .179656250000D+03 -.219066883223D+01 -.750459831093D-08
     .508592613495D-09  .100000000000D+01  .174700000000D+04  .000000000000D+00
     .340000000000D+01  .000000000000D+00 -.102445483208D-07  .960000000000D+02
     .460806000000D+06  .400000000000D+01
18 13  7  5 10  0  0.0  .262042041868D-03  .193267624127D-11  .000000000000D+00
     .630000000000D+02 -.103750000000D+02  .538415284301D-08 -.163989557845D+01
    -.419095158577D-06  .145212286152D-01  .774487853050D-05  .515361052704D+04
     .468000000000D+06  .277534127235D-06 -.104760383768D+01  .223517417908D-07
     .926819614214D+00  .206250000000D+03 -.209618427266D+01 -.818176937496D-08
    -.344657213499D-09  .100000000000D+01  .174700000000D+04  .000000000000D+00
     .240000000000D+01  .000000000000D+00 -.111758708954D-07  .630000000000D+02
     .460806000000D+06  .400000000000D+01
19 13  7  5 10  0  0.0 -.386375933886D-03 -.295585778076D-11  .000000000000D+00
     .137000000000D+03 -.278125000000D+02  .415017287136D-08  .239471350797D+01
    -.143609941006D-05  .943892495707D-02  .101570039988D-04  .515372374725D+04
     .468000000000D+06 -.186264514923D-06 -.304941279564D+01 -.428408384323D-07
     .963390190417D+00  .185750000000D+03  .332339422608D+00 -.771817863598D-08
     .437161066656D-09  .100000000000D+01  .174700000000D+04  .000000000000D+00
     .240000000000D+01  .000000000000D+00 -.149011611938D-07  .137000000000D+03
     .460806000000D+06  .400000000000D+01
20 13  7  5 10  0  0.0  .107521191239D-03  .227373675443D-11  .000000000000D+00
     .630000000000D+02 -.129375000000D+02  .546594196414D-08 -.114006970635D+01
    -.521540641785D-06  .537696143147D-02  .775046646595D-05  .515371479988D+04
     .468000000000D+06 -.149011611938D-07 -.110102019791D+01  .156462192535D-06
     .927562435739D+00  .216000000000D+03  .129380184395D+01 -.839070664947D-08
    -.392159192147D-09  .100000000000D+01  .174700000000D+04  .000000000000D+00
     .240000000000D+01  .000000000000D+00 -.791624188423D-08  .630000000000D+02
     .460806000000D+06  .400000000000D+01
21 13  7  5 10  0  0.0 -.306727830321D-03 -.204636307899D-11  .000000000000D+00
     .520000000000D+02  .152187500000D+02  .560416200727D-08 -.602584124322D+00
     .116229057312D-05  .204548183829D-01  .563450157642D-05  .515365608978D+04
     .468000000000D+06 -.298023223877D-07 -.209542924601D+01  .352039933205D-06
     .931392150462D+00  .258656250000D+03 -.212165445616D+01 -.879250910044D-08
     .358229207399D-09  .100000000000D+01  .174700000000D+04  .000000000000D+00
     .240000000000D+01  .000000000000D+00 -.111758708954D-07  .520000000000D+02
     .460806000000D+06  .400000000000D+01
22 13  7  5 10  0  0.0  .174382701516D-03  .170530256582D-11  .000000000000D+00
     .920000000000D+02 -.183125000000D+02  .542951187525D-08 -.222152537037D+01
    -.103376805782D-05  .676584639587D-02  .795722007751D-05  .515364550018D+04
     .468000000000D+06  .782310962677D-07 -.104507343121D+01 -.558793544769D-08
     .924569989994D+00  .203093750000D+03 -.203905168358D+01 -.826034407649D-08
    -.356443418728D-09  .100000000000D+01  .174700000000D+04  .000000000000D+00
     .240000000000D+01  .000000000000D+00 -.172294676304D-07  .920000000000D+02
     .460806000000D+06  .400000000000D+01
23 13  7  5 10  0  0.0  .698482617736D-04 -.352429196937D-11  .000000000000D+00
     .370000000000D+02  .987500000000D+02  .454876090272D-08  .192350614635D+01
     .527128577232D-05  .875046721194D-02  .919587910175D-05  .515369939232D+04
     .468000000000D+06 -.137835741043D-06  .121948382954D-01  .191852450371D-06
     .955740307974D+00  .202593750000D+03 -.286763654041D+01 -.800997650482D-08
    -.425017703693D-10  .100000000000D+01  .174700000000D+04  .000000000000D+00
     .240000000000D+01  .000000000000D+00 -.200234353542D-07  .370000000000D+02
     .460806000000D+06  .400000000000D+01
